<?xml version="1.0" encoding="UTF-8"?>
<kml xmlns="http://www.opengis.net/kml/2.2">
  <Document>
    <name>首里石嶺-1-B</name>
    <Style id="poly-FF5252-2000-77-nodesc-normal">
      <LineStyle>
        <color>ff5252ff</color>
        <width>2</width>
      </LineStyle>
      <PolyStyle>
        <color>4d5252ff</color>
        <fill>1</fill>
        <outline>1</outline>
      </PolyStyle>
      <BalloonStyle>
        <text><![CDATA[<h3>$[name]</h3>]]></text>
      </BalloonStyle>
    </Style>
    <Style id="poly-FF5252-2000-77-nodesc-highlight">
      <LineStyle>
        <color>ff5252ff</color>
        <width>3</width>
      </LineStyle>
      <PolyStyle>
        <color>4d5252ff</color>
        <fill>1</fill>
        <outline>1</outline>
      </PolyStyle>
      <BalloonStyle>
        <text><![CDATA[<h3>$[name]</h3>]]></text>
      </BalloonStyle>
    </Style>
    <StyleMap id="poly-FF5252-2000-77-nodesc">
      <Pair>
        <key>normal</key>
        <styleUrl>#poly-FF5252-2000-77-nodesc-normal</styleUrl>
      </Pair>
      <Pair>
        <key>highlight</key>
        <styleUrl>#poly-FF5252-2000-77-nodesc-highlight</styleUrl>
      </Pair>
    </StyleMap>
    <Placemark>
      <name>1-B</name>
      <styleUrl>#poly-FF5252-2000-77-nodesc</styleUrl>
      <Polygon>
        <outerBoundaryIs>
          <LinearRing>
            <tessellate>1</tessellate>
            <coordinates>
              127.719362,26.227609,0
              127.71825,26.227084,0
              127.718134,26.226846,0
              127.71833,26.226201,0
              127.71836,26.225766,0
              127.718749,26.225746,0
              127.71905,26.225676,0
              127.719364,26.225547,0
              127.719538,26.225539,0
              127.719472,26.225982,0
              127.719515,26.22611,0
              127.718885,26.226747,0
              127.718853,26.226858,0
              127.718802,26.226938,0
              127.71896,26.227031,0
              127.719212,26.227224,0
              127.719365,26.227132,0
              127.719434,26.227214,0
              127.719412,26.22738,0
              127.719362,26.227609,0
            </coordinates>
          </LinearRing>
        </outerBoundaryIs>
      </Polygon>
    </Placemark>
  </Document>
</kml>
