<?xml version="1.0" encoding="UTF-8"?>
<kml xmlns="http://www.opengis.net/kml/2.2">
  <Document>
    <name>無題のレイヤ</name>
    <Style id="poly-000000-1200-77-nodesc-normal">
      <LineStyle>
        <color>ff000000</color>
        <width>1.2</width>
      </LineStyle>
      <PolyStyle>
        <color>4d000000</color>
        <fill>1</fill>
        <outline>1</outline>
      </PolyStyle>
      <BalloonStyle>
        <text><![CDATA[<h3>$[name]</h3>]]></text>
      </BalloonStyle>
    </Style>
    <Style id="poly-000000-1200-77-nodesc-highlight">
      <LineStyle>
        <color>ff000000</color>
        <width>1.8</width>
      </LineStyle>
      <PolyStyle>
        <color>4d000000</color>
        <fill>1</fill>
        <outline>1</outline>
      </PolyStyle>
      <BalloonStyle>
        <text><![CDATA[<h3>$[name]</h3>]]></text>
      </BalloonStyle>
    </Style>
    <StyleMap id="poly-000000-1200-77-nodesc">
      <Pair>
        <key>normal</key>
        <styleUrl>#poly-000000-1200-77-nodesc-normal</styleUrl>
      </Pair>
      <Pair>
        <key>highlight</key>
        <styleUrl>#poly-000000-1200-77-nodesc-highlight</styleUrl>
      </Pair>
    </StyleMap>
    <Placemark>
      <name>1-C</name>
      <styleUrl>#poly-000000-1200-77-nodesc</styleUrl>
      <Polygon>
        <outerBoundaryIs>
          <LinearRing>
            <tessellate>1</tessellate>
            <coordinates>
              127.7183605,26.2257655,0
              127.7183659,26.225063,0
              127.7193315,26.2244879,0
              127.7196426,26.224228,0
              127.7197043,26.2242834,0
              127.7197311,26.2247718,0
              127.7196453,26.2251881,0
              127.719538,26.2255394,0
              127.7193637,26.2255466,0
              127.7190498,26.2256765,0
              127.7187494,26.2257463,0
              127.7183605,26.2257655,0
            </coordinates>
          </LinearRing>
        </outerBoundaryIs>
      </Polygon>
    </Placemark>
    <Placemark>
      <name>1-A</name>
      <styleUrl>#poly-000000-1200-77-nodesc</styleUrl>
      <Polygon>
        <outerBoundaryIs>
          <LinearRing>
            <tessellate>1</tessellate>
            <coordinates>
              127.719365,26.2271324,0
              127.7192121,26.2272238,0
              127.7189599,26.2270313,0
              127.7188017,26.2269375,0
              127.7188527,26.2268581,0
              127.7188848,26.2267474,0
              127.7195152,26.2261098,0
              127.7196573,26.2262253,0
              127.7197727,26.2261146,0
              127.7203091,26.2259799,0
              127.720631,26.226117,0
              127.7206041,26.2264611,0
              127.7204754,26.2267955,0
              127.7201508,26.2268869,0
              127.719365,26.2271324,0
            </coordinates>
          </LinearRing>
        </outerBoundaryIs>
      </Polygon>
    </Placemark>
    <Placemark>
      <name>1-B</name>
      <styleUrl>#poly-000000-1200-77-nodesc</styleUrl>
      <Polygon>
        <outerBoundaryIs>
          <LinearRing>
            <tessellate>1</tessellate>
            <coordinates>
              127.7193615,26.2276088,0
              127.7182501,26.2270843,0
              127.7181343,26.226846,0
              127.7183301,26.2262012,0
              127.7183605,26.2257655,0
              127.7187494,26.2257463,0
              127.7190498,26.2256765,0
              127.7193637,26.2255466,0
              127.719538,26.2255394,0
              127.7194715,26.2259823,0
              127.7195152,26.2261098,0
              127.7188848,26.2267474,0
              127.7188527,26.2268581,0
              127.7188017,26.2269375,0
              127.7189599,26.2270313,0
              127.7192121,26.2272238,0
              127.719365,26.2271324,0
              127.7194339,26.2272142,0
              127.7194125,26.2273802,0
              127.7193615,26.2276088,0
            </coordinates>
          </LinearRing>
        </outerBoundaryIs>
      </Polygon>
    </Placemark>
    <Placemark>
      <name>1-D</name>
      <styleUrl>#poly-000000-1200-77-nodesc</styleUrl>
      <Polygon>
        <outerBoundaryIs>
          <LinearRing>
            <tessellate>1</tessellate>
            <coordinates>
              127.7196573,26.2262253,0
              127.7195152,26.2261098,0
              127.7194715,26.2259823,0
              127.719538,26.2255394,0
              127.7196453,26.2251881,0
              127.7197311,26.2247718,0
              127.7197267,26.2246817,0
              127.7200928,26.2246192,0
              127.7202507,26.2244695,0
              127.720493,26.2246249,0
              127.7207443,26.224869,0
              127.720859,26.2250278,0
              127.7205572,26.2252379,0
              127.7205257,26.2252464,0
              127.7204718,26.225319,0
              127.7204516,26.2253605,0
              127.7203926,26.2254256,0
              127.7203859,26.2254774,0
              127.7202746,26.2256338,0
              127.7201204,26.2256344,0
              127.7201002,26.2260323,0
              127.7197727,26.2261146,0
              127.7196573,26.2262253,0
            </coordinates>
          </LinearRing>
        </outerBoundaryIs>
      </Polygon>
    </Placemark>
  </Document>
</kml>
